[{"OBJECT_NAME":"STARLINK-4388","OBJECT_ID":"2022-105D","EPOCH":"2026-03-09T15:52:02.872704","MEAN_MOTION":15.05648779,"ECCENTRICITY":0.00023933,"INCLINATION":97.6022,"RA_OF_ASC_NODE":311.1928,"ARG_OF_PERICENTER":81.8615,"MEAN_ANOMALY":278.2883,"EPHEMERIS_TYPE":0,"CLASSIFICATION_TYPE":"U","NORAD_CAT_ID":53651,"ELEMENT_SET_NO":999,"REV_AT_EPOCH":19329,"BSTAR":5.6877377e-5,"MEAN_MOTION_DOT":7.6e-6,"MEAN_MOTION_DDOT":0},{"OBJECT_NAME":"CZ-6A DEB","OBJECT_ID":"2022-151BB","EPOCH":"2026-03-09T17:16:48.853632","MEAN_MOTION":14.94828895,"ECCENTRICITY":0.00449007,"INCLINATION":98.6423,"RA_OF_ASC_NODE":141.5544,"ARG_OF_PERICENTER":201.6501,"MEAN_ANOMALY":158.2819,"EPHEMERIS_TYPE":0,"CLASSIFICATION_TYPE":"U","NORAD_CAT_ID":54308,"ELEMENT_SET_NO":999,"REV_AT_EPOCH":17599,"BSTAR":0.0053055882,"MEAN_MOTION_DOT":0.00059316,"MEAN_MOTION_DDOT":0}]
